[
    {
        "Altitude(m)": 617719.7543744926,
        "Argument of Periapsis(deg)": 0.0,
        "Eccentricity": 0.0,
        "Inclination(deg)": 60.0,
        "Latitude(deg)": -41.102595251126104,
        "Longitude(deg)": 10.094723508156198,
        "Mean Anomaly(deg)": -130.90909999999997,
        "RAAN(deg)": 260.0,
        "Satellite Name": "Test1 1158",
        "Satellite Number": 1158,
        "Semi-Major Axis(m)": 6980739.136638005,
        "Time(s)": 0
    },
    {
        "Altitude(m)": 617911.2899575563,
        "Argument of Periapsis(deg)": 0.00010418945913296404,
        "Eccentricity": 0.0,
        "Inclination(deg)": 60.0,
        "Latitude(deg)": -41.56578645588273,
        "Longitude(deg)": 10.59913096293198,
        "Mean Anomaly(deg)": -130.2889938545382,
        "RAAN(deg)": 259.99957995086027,
        "Satellite Name": "Test1 1158",
        "Satellite Number": 1158,
        "Semi-Major Axis(m)": 6980739.136638005,
        "Time(s)": 10
    }
]